{
    "links": {
        "self": "http://www.neowsapp.com/rest/v1/neo/54091654?api_key=iIulBulltgU6a56xZRHN4H3l9WmuAYTsLGpBGhQ2"
    },
    "id": "54091654",
    "neo_reference_id": "54091654",
    "name": "(2020 WE2)",
    "designation": "2020 WE2",
    "nasa_jpl_url": "http://ssd.jpl.nasa.gov/sbdb.cgi?sstr=54091654",
    "absolute_magnitude_h": 21.824,
    "estimated_diameter": {
        "kilometers": {
            "estimated_diameter_min": 0.1147506031,
            "estimated_diameter_max": 0.2565901489
        },
        "meters": {
            "estimated_diameter_min": 114.7506030604,
            "estimated_diameter_max": 256.5901489021
        },
        "miles": {
            "estimated_diameter_min": 0.071302697,
            "estimated_diameter_max": 0.1594376774
        },
        "feet": {
            "estimated_diameter_min": 376.4783685446,
            "estimated_diameter_max": 841.8312241239
        }
    },
    "is_potentially_hazardous_asteroid": false,
    "close_approach_data": [
        {
            "close_approach_date": "2020-11-25",
            "close_approach_date_full": "2020-Nov-25 04:37",
            "epoch_date_close_approach": 1606279020000,
            "relative_velocity": {
                "kilometers_per_second": "19.0742744876",
                "kilometers_per_hour": "68667.3881554381",
                "miles_per_hour": "42667.244601361"
            },
            "miss_distance": {
                "astronomical": "0.1387599667",
                "lunar": "53.9776270463",
                "kilometers": "20758195.459590929",
                "miles": "12898544.5451316602"
            },
            "orbiting_body": "Earth"
        },
        {
            "close_approach_date": "2029-11-15",
            "close_approach_date_full": "2029-Nov-15 17:28",
            "epoch_date_close_approach": 1889458080000,
            "relative_velocity": {
                "kilometers_per_second": "22.5556737618",
                "kilometers_per_hour": "81200.425542448",
                "miles_per_hour": "50454.7866377505"
            },
            "miss_distance": {
                "astronomical": "0.2352142406",
                "lunar": "91.4983395934",
                "kilometers": "35187549.387427522",
                "miles": "21864529.3176509236"
            },
            "orbiting_body": "Earth"
        }
    ],
    "orbital_data": {
        "orbit_id": "11",
        "orbit_determination_date": "2020-12-07 05:26:55",
        "first_observation_date": "2020-11-11",
        "last_observation_date": "2020-12-07",
        "data_arc_in_days": 26,
        "observations_used": 102,
        "orbit_uncertainty": "7",
        "minimum_orbit_intersection": ".106932",
        "jupiter_tisserand_invariant": "3.903",
        "epoch_osculation": "2459000.5",
        "eccentricity": ".4141399808731693",
        "semi_major_axis": "1.710923813993232",
        "inclination": "34.36467074044753",
        "ascending_node_longitude": "57.29692177168938",
        "orbital_period": "817.4184456703528",
        "perihelion_distance": "1.002361858390625",
        "perihelion_argument": "46.50343529465356",
        "aphelion_distance": "2.419485769595839",
        "perihelion_time": "2459219.753138148386",
        "mean_anomaly": "263.4385263123237",
        "mean_motion": ".440410908154598",
        "equinox": "J2000",
        "orbit_class": {
            "orbit_class_type": "APO",
            "orbit_class_description": "Near-Earth asteroid orbits which cross the Earth’s orbit similar to that of 1862 Apollo",
            "orbit_class_range": "a (semi-major axis) > 1.0 AU; q (perihelion) < 1.017 AU"
        }
    },
    "is_sentry_object": false
}